{"type": "FeatureCollection", "features": [{"type": "Feature", "properties": {"norad_id": 37846, "name": "GSAT0101 (GALILEO-PFM)", "group": "galileo", "lat": 55.03317139783968, "lon": 55.01207283248954, "alt_km": 23220.718582815625, "timestamp": "2025-12-07T03:52:32.759380+00:00", "meta": {"OBJECT_NAME": "GSAT0101 (GALILEO-PFM)", "OBJECT_ID": "2011-060A", "EPOCH": "2025-12-06T10:45:46.943136", "MEAN_MOTION": 1.70475516, "ECCENTRICITY": 0.00028809, "INCLINATION": 57.0541, "RA_OF_ASC_NODE": 346.9907, "ARG_OF_PERICENTER": 311.6243, "MEAN_ANOMALY": 48.3737, "EPHEMERIS_TYPE": 0, "CLASSIFICATION_TYPE": "U", "NORAD_CAT_ID": 37846, "ELEMENT_SET_NO": 999, "REV_AT_EPOCH": 8783, "BSTAR": 0, "MEAN_MOTION_DOT": -8.1e-07, "MEAN_MOTION_DDOT": 0}, "tle": {"line1": "1 37846U 11060A   25340.44845999 -.00000081  00000+0  00000+0 0  9990", "line2": "2 37846  57.0541 346.9907 0002880 311.6243  48.3737  1.70475516 87832"}}, "geometry": {"type": "Point", "coordinates": [55.01207283248954, 55.03317139783968]}}, {"type": "Feature", "properties": {"norad_id": 37847, "name": "GSAT0102 (GALILEO-FM2)", "group": "galileo", "lat": 44.66610254027318, "lon": 127.09940353156256, "alt_km": 23230.97389260881, "timestamp": "2025-12-07T03:52:32.759403+00:00", "meta": {"OBJECT_NAME": "GSAT0102 (GALILEO-FM2)", "OBJECT_ID": "2011-060B", "EPOCH": "2025-12-06T01:52:21.849024", "MEAN_MOTION": 1.7047572, "ECCENTRICITY": 0.00048425, "INCLINATION": 57.055, "RA_OF_ASC_NODE": 347.0012, "ARG_OF_PERICENTER": 307.2223, "MEAN_ANOMALY": 230.8964, "EPHEMERIS_TYPE": 0, "CLASSIFICATION_TYPE": "U", "NORAD_CAT_ID": 37847, "ELEMENT_SET_NO": 999, "REV_AT_EPOCH": 8783, "BSTAR": 0, "MEAN_MOTION_DOT": -7.9e-07, "MEAN_MOTION_DDOT": 0}, "tle": {"line1": "1 37847U 11060B   25340.07803066 -.00000079  00000+0  00000+0 0  9996", "line2": "2 37847  57.0550 347.0012 0004842 307.2223 230.8964  1.70475720 87838"}}, "geometry": {"type": "Point", "coordinates": [127.09940353156256, 44.66610254027318]}}, {"type": "Feature", "properties": {"norad_id": 38857, "name": "GSAT0103 (GALILEO-FM3)", "group": "galileo", "lat": 41.281176945974444, "lon": 143.60311293042292, "alt_km": 23223.246463281066, "timestamp": "2025-12-07T03:52:32.759418+00:00", "meta": {"OBJECT_NAME": "GSAT0103 (GALILEO-FM3)", "OBJECT_ID": "2012-055A", "EPOCH": "2025-12-05T21:38:47.654016", "MEAN_MOTION": 1.70473243, "ECCENTRICITY": 0.00024504, "INCLINATION": 55.6874, "RA_OF_ASC_NODE": 106.8543, "ARG_OF_PERICENTER": 267.6787, "MEAN_ANOMALY": 92.2447, "EPHEMERIS_TYPE": 0, "CLASSIFICATION_TYPE": "U", "NORAD_CAT_ID": 38857, "ELEMENT_SET_NO": 999, "REV_AT_EPOCH": 8171, "BSTAR": 0, "MEAN_MOTION_DOT": 8e-08, "MEAN_MOTION_DDOT": 0}, "tle": {"line1": "1 38857U 12055A   25339.90194044  .00000008  00000+0  00000+0 0  9993", "line2": "2 38857  55.6874 106.8543 0002450 267.6787  92.2447  1.70473243 81715"}}, "geometry": {"type": "Point", "coordinates": [143.60311293042292, 41.281176945974444]}}, {"type": "Feature", "properties": {"norad_id": 40128, "name": "GSAT0201 (GALILEO 5)", "group": "galileo", "lat": 48.971847684469395, "lon": 16.833660262955693, "alt_km": 19954.43709630925, "timestamp": "2025-12-07T03:52:32.759431+00:00", "meta": {"OBJECT_NAME": "GSAT0201 (GALILEO 5)", "OBJECT_ID": "2014-050A", "EPOCH": "2025-12-03T05:25:23.717280", "MEAN_MOTION": 1.85519443, "ECCENTRICITY": 0.16470313, "INCLINATION": 49.088, "RA_OF_ASC_NODE": 281.4514, "ARG_OF_PERICENTER": 171.9194, "MEAN_ANOMALY": 191.1354, "EPHEMERIS_TYPE": 0, "CLASSIFICATION_TYPE": "U", "NORAD_CAT_ID": 40128, "ELEMENT_SET_NO": 999, "REV_AT_EPOCH": 7468, "BSTAR": 0, "MEAN_MOTION_DOT": -5.9e-07, "MEAN_MOTION_DDOT": 0}, "tle": {"line1": "1 40128U 14050A   25337.22596895 -.00000059  00000+0  00000+0 0  9994", "line2": "2 40128  49.0880 281.4514 1647031 171.9194 191.1354  1.85519443 74684"}}, "geometry": {"type": "Point", "coordinates": [16.833660262955693, 48.971847684469395]}}, {"type": "Feature", "properties": {"norad_id": 40129, "name": "GSAT0202 (GALILEO 6)", "group": "galileo", "lat": -33.33193467353785, "lon": -114.34357154177849, "alt_km": 24822.6011082591, "timestamp": "2025-12-07T03:52:32.759444+00:00", "meta": {"OBJECT_NAME": "GSAT0202 (GALILEO 6)", "OBJECT_ID": "2014-050B", "EPOCH": "2025-12-06T04:15:08.981856", "MEAN_MOTION": 1.85520222, "ECCENTRICITY": 0.16479377, "INCLINATION": 49.1003, "RA_OF_ASC_NODE": 280.4147, "ARG_OF_PERICENTER": 172.7832, "MEAN_ANOMALY": 189.9608, "EPHEMERIS_TYPE": 0, "CLASSIFICATION_TYPE": "U", "NORAD_CAT_ID": 40129, "ELEMENT_SET_NO": 999, "REV_AT_EPOCH": 7690, "BSTAR": 0, "MEAN_MOTION_DOT": -5.4e-07, "MEAN_MOTION_DDOT": 0}, "tle": {"line1": "1 40129U 14050B   25340.17718729 -.00000054  00000+0  00000+0 0  9990", "line2": "2 40129  49.1003 280.4147 1647937 172.7832 189.9608  1.85520222 76908"}}, "geometry": {"type": "Point", "coordinates": [-114.34357154177849, -33.33193467353785]}}, {"type": "Feature", "properties": {"norad_id": 40544, "name": "GSAT0203 (GALILEO 7)", "group": "galileo", "lat": -27.66573098437233, "lon": -173.1254593521424, "alt_km": 23214.767298089497, "timestamp": "2025-12-07T03:52:32.759456+00:00", "meta": {"OBJECT_NAME": "GSAT0203 (GALILEO 7)", "OBJECT_ID": "2015-017A", "EPOCH": "2025-12-05T01:16:54.709536", "MEAN_MOTION": 1.70475832, "ECCENTRICITY": 0.00065103, "INCLINATION": 56.8481, "RA_OF_ASC_NODE": 346.8898, "ARG_OF_PERICENTER": 269.6279, "MEAN_ANOMALY": 90.3257, "EPHEMERIS_TYPE": 0, "CLASSIFICATION_TYPE": "U", "NORAD_CAT_ID": 40544, "ELEMENT_SET_NO": 999, "REV_AT_EPOCH": 6589, "BSTAR": 0, "MEAN_MOTION_DOT": -7.5e-07, "MEAN_MOTION_DDOT": 0}, "tle": {"line1": "1 40544U 15017A   25339.05341099 -.00000075  00000+0  00000+0 0  9995", "line2": "2 40544  56.8481 346.8898 0006510 269.6279  90.3257  1.70475832 65891"}}, "geometry": {"type": "Point", "coordinates": [-173.1254593521424, -27.66573098437233]}}, {"type": "Feature", "properties": {"norad_id": 40545, "name": "GSAT0204 (GALILEO 8)", "group": "galileo", "lat": 44.57030522279574, "lon": 26.93080089725131, "alt_km": 23233.649310072753, "timestamp": "2025-12-07T03:52:32.759468+00:00", "meta": {"OBJECT_NAME": "GSAT0204 (GALILEO 8)", "OBJECT_ID": "2015-017B", "EPOCH": "2025-12-04T03:15:24.834240", "MEAN_MOTION": 1.70475395, "ECCENTRICITY": 0.00062587, "INCLINATION": 56.8537, "RA_OF_ASC_NODE": 346.9325, "ARG_OF_PERICENTER": 261.1307, "MEAN_ANOMALY": 98.8308, "EPHEMERIS_TYPE": 0, "CLASSIFICATION_TYPE": "U", "NORAD_CAT_ID": 40545, "ELEMENT_SET_NO": 999, "REV_AT_EPOCH": 2892, "BSTAR": 0, "MEAN_MOTION_DOT": -7.1e-07, "MEAN_MOTION_DDOT": 0}, "tle": {"line1": "1 40545U 15017B   25338.13570410 -.00000071  00000+0  00000+0 0  9991", "line2": "2 40545  56.8537 346.9325 0006258 261.1307  98.8308  1.70475395 28925"}}, "geometry": {"type": "Point", "coordinates": [26.93080089725131, 44.57030522279574]}}, {"type": "Feature", "properties": {"norad_id": 40889, "name": "GSAT0205 (GALILEO 9)", "group": "galileo", "lat": -15.612476765060682, "lon": 58.19848566131474, "alt_km": 23240.910055207067, "timestamp": "2025-12-07T03:52:32.759479+00:00", "meta": {"OBJECT_NAME": "GSAT0205 (GALILEO 9)", "OBJECT_ID": "2015-045A", "EPOCH": "2025-12-03T21:42:02.149056", "MEAN_MOTION": 1.70472902, "ECCENTRICITY": 0.0005859, "INCLINATION": 55.0066, "RA_OF_ASC_NODE": 227.0025, "ARG_OF_PERICENTER": 38.6315, "MEAN_ANOMALY": 321.5029, "EPHEMERIS_TYPE": 0, "CLASSIFICATION_TYPE": "U", "NORAD_CAT_ID": 40889, "ELEMENT_SET_NO": 999, "REV_AT_EPOCH": 6368, "BSTAR": 0, "MEAN_MOTION_DOT": 4e-07, "MEAN_MOTION_DDOT": 0}, "tle": {"line1": "1 40889U 15045A   25337.90419154  .00000040  00000+0  00000+0 0  9999", "line2": "2 40889  55.0066 227.0025 0005859  38.6315 321.5029  1.70472902 63681"}}, "geometry": {"type": "Point", "coordinates": [58.19848566131474, -15.612476765060682]}}, {"type": "Feature", "properties": {"norad_id": 40890, "name": "GSAT0206 (GALILEO 10)", "group": "galileo", "lat": 47.27240922774838, "lon": -83.82454886702054, "alt_km": 23207.659328371745, "timestamp": "2025-12-07T03:52:32.759491+00:00", "meta": {"OBJECT_NAME": "GSAT0206 (GALILEO 10)", "OBJECT_ID": "2015-045B", "EPOCH": "2025-12-05T21:13:48.980352", "MEAN_MOTION": 1.70473029, "ECCENTRICITY": 0.00035588, "INCLINATION": 55.0048, "RA_OF_ASC_NODE": 226.9429, "ARG_OF_PERICENTER": 32.2764, "MEAN_ANOMALY": 327.8431, "EPHEMERIS_TYPE": 0, "CLASSIFICATION_TYPE": "U", "NORAD_CAT_ID": 40890, "ELEMENT_SET_NO": 999, "REV_AT_EPOCH": 6374, "BSTAR": 0, "MEAN_MOTION_DOT": 3.5e-07, "MEAN_MOTION_DDOT": 0}, "tle": {"line1": "1 40890U 15045B   25339.88459468  .00000035  00000+0  00000+0 0  9996", "line2": "2 40890  55.0048 226.9429 0003558  32.2764 327.8431  1.70473029 63745"}}, "geometry": {"type": "Point", "coordinates": [-83.82454886702054, 47.27240922774838]}}, {"type": "Feature", "properties": {"norad_id": 41174, "name": "GSAT0209 (GALILEO 12)", "group": "galileo", "lat": -31.731130615232765, "lon": 81.58809365852612, "alt_km": 23220.584152916505, "timestamp": "2025-12-07T03:52:32.759503+00:00", "meta": {"OBJECT_NAME": "GSAT0209 (GALILEO 12)", "OBJECT_ID": "2015-079A", "EPOCH": "2025-12-01T22:43:10.411392", "MEAN_MOTION": 1.70474306, "ECCENTRICITY": 0.0002352, "INCLINATION": 55.7062, "RA_OF_ASC_NODE": 106.6773, "ARG_OF_PERICENTER": 357.4206, "MEAN_ANOMALY": 2.5431, "EPHEMERIS_TYPE": 0, "CLASSIFICATION_TYPE": "U", "NORAD_CAT_ID": 41174, "ELEMENT_SET_NO": 999, "REV_AT_EPOCH": 6141, "BSTAR": 0, "MEAN_MOTION_DOT": 3.5e-07, "MEAN_MOTION_DDOT": 0}, "tle": {"line1": "1 41174U 15079A   25335.94664828  .00000035  00000+0  00000+0 0  9990", "line2": "2 41174  55.7062 106.6773 0002352 357.4206   2.5431  1.70474306 61412"}}, "geometry": {"type": "Point", "coordinates": [81.58809365852612, -31.731130615232765]}}]}